STARLINK-5031           
1 53889U 22119D   25288.63192986  .00000750  00000+0  65197-4 0  9990
2 53889  53.2177 255.4626 0001406  87.1113 273.0041 15.08841919169786
STARLINK-5050           
1 53890U 22119E   25288.19535037  .00000377  00000+0  41777-4 0  9994
2 53890  53.2172 222.0568 0001622  95.3839 264.7339 15.08832820170212
STARLINK-5041           
1 53891U 22119F   25288.62456354  .00000306  00000+0  37296-4 0  9990
2 53891  53.2179 255.4166 0001475  91.2274 268.8887 15.08835669169785
STARLINK-5046           
1 53892U 22119G   25288.60613498  .00002472  00000+0  17334-3 0  9999
2 53892  53.2160 255.3028 0001375  92.0549 268.0600 15.08840997169780
STARLINK-5052           
1 53893U 22119H   25288.61815166  .00000670  00000+0  60190-4 0  9994
2 53893  53.2172 255.3743 0001363  87.9815 272.1333 15.08835567169780
STARLINK-5043           
1 53894U 22119J   25288.62087657  .00000764  00000+0  66097-4 0  9998
2 53894  53.2170 255.3954 0001392  93.7416 266.3735 15.08838743169787
STARLINK-5032           
1 53895U 22119K   25288.60982294  .00000566  00000+0  53628-4 0  9994
2 53895  53.2162 255.3258 0001344  89.6165 270.4981 15.08832740169788
STARLINK-5037           
1 53896U 22119L   25288.60245136 -.00001692  00000+0 -88229-4 0  9990
2 53896  53.2166 255.2810 0001274  92.8963 267.2175 15.08839833169789
STARLINK-5035           
1 53897U 22119M   25288.61719346  .00000171  00000+0  28865-4 0  9990
2 53897  53.2191 255.3726 0001926  95.4410 264.6802 15.08847592169784
STARLINK-5044           
1 53898U 22119N   25288.32641637  .00002071  00000+0  14814-3 0  9995
2 53898  53.2162 256.4010 0001495  85.9870 274.1293 15.08853818169740
STARLINK-5042           
1 53899U 22119P   25288.33011868  .00003179  00000+0  21780-3 0  9994
2 53899  53.2166 256.4232 0001369  77.8574 282.2572 15.08828177169742
STARLINK-5045           
1 53900U 22119Q   25288.31906613 -.00000336  00000+0 -29902-5 0  9996
2 53900  53.2172 256.3553 0001349  93.9580 266.1566 15.08845843169744
STARLINK-5024           
1 53901U 22119R   25288.88211839  .00986680  00000+0  14390-1 0  9992
2 53901  53.2159 240.8711 0001922 143.0589 217.0555 15.52635909170011
STARLINK-5021           
1 53902U 22119S   25288.18752003 -.00000076  00000+0  13318-4 0  9998
2 53902  53.2176 207.0581 0001445  92.3968 267.7190 15.08839875170429
STARLINK-5022           
1 53903U 22119T   25288.33476126 -.00000112  00000+0  11069-4 0  9997
2 53903  53.2167 256.4497 0001482  90.6863 269.4299 15.08840600169740
STARLINK-4787           
1 53904U 22119U   25288.31537759  .00000815  00000+0  69287-4 0  9990
2 53904  53.2166 256.3328 0001419  87.4747 272.6407 15.08846218169745
