[{"OBJECT_NAME":"STARLINK-5031","OBJECT_ID":"2022-119D","EPOCH":"2025-10-15T15:09:58.739904","MEAN_MOTION":15.08841919,"ECCENTRICITY":0.00014066,"INCLINATION":53.2177,"RA_OF_ASC_NODE":255.4626,"ARG_OF_PERICENTER":87.1113,"MEAN_ANOMALY":273.0041,"EPHEMERIS_TYPE":0,"CLASSIFICATION_TYPE":"U","NORAD_CAT_ID":53889,"ELEMENT_SET_NO":999,"REV_AT_EPOCH":16978,"BSTAR":6.5197422e-5,"MEAN_MOTION_DOT":7.5e-6,"MEAN_MOTION_DDOT":0},{"OBJECT_NAME":"STARLINK-5050","OBJECT_ID":"2022-119E","EPOCH":"2025-10-15T04:41:18.271968","MEAN_MOTION":15.0883282,"ECCENTRICITY":0.00016228,"INCLINATION":53.2172,"RA_OF_ASC_NODE":222.0568,"ARG_OF_PERICENTER":95.3839,"MEAN_ANOMALY":264.7339,"EPHEMERIS_TYPE":0,"CLASSIFICATION_TYPE":"U","NORAD_CAT_ID":53890,"ELEMENT_SET_NO":999,"REV_AT_EPOCH":17021,"BSTAR":4.1777498e-5,"MEAN_MOTION_DOT":3.77e-6,"MEAN_MOTION_DDOT":0},{"OBJECT_NAME":"STARLINK-5041","OBJECT_ID":"2022-119F","EPOCH":"2025-10-15T14:59:22.289856","MEAN_MOTION":15.08835669,"ECCENTRICITY":0.00014759,"INCLINATION":53.2179,"RA_OF_ASC_NODE":255.4166,"ARG_OF_PERICENTER":91.2274,"MEAN_ANOMALY":268.8887,"EPHEMERIS_TYPE":0,"CLASSIFICATION_TYPE":"U","NORAD_CAT_ID":53891,"ELEMENT_SET_NO":999,"REV_AT_EPOCH":16978,"BSTAR":3.7295711e-5,"MEAN_MOTION_DOT":3.06e-6,"MEAN_MOTION_DDOT":0},{"OBJECT_NAME":"STARLINK-5046","OBJECT_ID":"2022-119G","EPOCH":"2025-10-15T14:32:50.062272","MEAN_MOTION":15.08840997,"ECCENTRICITY":0.00013759,"INCLINATION":53.216,"RA_OF_ASC_NODE":255.3028,"ARG_OF_PERICENTER":92.0549,"MEAN_ANOMALY":268.06,"EPHEMERIS_TYPE":0,"CLASSIFICATION_TYPE":"U","NORAD_CAT_ID":53892,"ELEMENT_SET_NO":999,"REV_AT_EPOCH":16978,"BSTAR":0.00017333978,"MEAN_MOTION_DOT":2.472e-5,"MEAN_MOTION_DDOT":0},{"OBJECT_NAME":"STARLINK-5052","OBJECT_ID":"2022-119H","EPOCH":"2025-10-15T14:50:08.303424","MEAN_MOTION":15.08835567,"ECCENTRICITY":0.00013635,"INCLINATION":53.2172,"RA_OF_ASC_NODE":255.3743,"ARG_OF_PERICENTER":87.9815,"MEAN_ANOMALY":272.1333,"EPHEMERIS_TYPE":0,"CLASSIFICATION_TYPE":"U","NORAD_CAT_ID":53893,"ELEMENT_SET_NO":999,"REV_AT_EPOCH":16978,"BSTAR":6.0189731e-5,"MEAN_MOTION_DOT":6.7e-6,"MEAN_MOTION_DDOT":0},{"OBJECT_NAME":"STARLINK-5043","OBJECT_ID":"2022-119J","EPOCH":"2025-10-15T14:54:03.735648","MEAN_MOTION":15.08838743,"ECCENTRICITY":0.00013924,"INCLINATION":53.217,"RA_OF_ASC_NODE":255.3954,"ARG_OF_PERICENTER":93.7416,"MEAN_ANOMALY":266.3735,"EPHEMERIS_TYPE":0,"CLASSIFICATION_TYPE":"U","NORAD_CAT_ID":53894,"ELEMENT_SET_NO":999,"REV_AT_EPOCH":16978,"BSTAR":6.6096512e-5,"MEAN_MOTION_DOT":7.64e-6,"MEAN_MOTION_DDOT":0},{"OBJECT_NAME":"STARLINK-5032","OBJECT_ID":"2022-119K","EPOCH":"2025-10-15T14:38:08.702016","MEAN_MOTION":15.0883274,"ECCENTRICITY":0.0001344,"INCLINATION":53.2162,"RA_OF_ASC_NODE":255.3258,"ARG_OF_PERICENTER":89.6165,"MEAN_ANOMALY":270.4981,"EPHEMERIS_TYPE":0,"CLASSIFICATION_TYPE":"U","NORAD_CAT_ID":53895,"ELEMENT_SET_NO":999,"REV_AT_EPOCH":16978,"BSTAR":5.3627865e-5,"MEAN_MOTION_DOT":5.66e-6,"MEAN_MOTION_DDOT":0},{"OBJECT_NAME":"STARLINK-5037","OBJECT_ID":"2022-119L","EPOCH":"2025-10-15T14:27:31.797504","MEAN_MOTION":15.08839833,"ECCENTRICITY":0.00012743,"INCLINATION":53.2166,"RA_OF_ASC_NODE":255.281,"ARG_OF_PERICENTER":92.8963,"MEAN_ANOMALY":267.2175,"EPHEMERIS_TYPE":0,"CLASSIFICATION_TYPE":"U","NORAD_CAT_ID":53896,"ELEMENT_SET_NO":999,"REV_AT_EPOCH":16978,"BSTAR":-8.8228982e-5,"MEAN_MOTION_DOT":-1.692e-5,"MEAN_MOTION_DDOT":0},{"OBJECT_NAME":"STARLINK-5035","OBJECT_ID":"2022-119M","EPOCH":"2025-10-15T14:48:45.514944","MEAN_MOTION":15.08847592,"ECCENTRICITY":0.00019264,"INCLINATION":53.2191,"RA_OF_ASC_NODE":255.3726,"ARG_OF_PERICENTER":95.441,"MEAN_ANOMALY":264.6802,"EPHEMERIS_TYPE":0,"CLASSIFICATION_TYPE":"U","NORAD_CAT_ID":53897,"ELEMENT_SET_NO":999,"REV_AT_EPOCH":16978,"BSTAR":2.8864713e-5,"MEAN_MOTION_DOT":1.71e-6,"MEAN_MOTION_DDOT":0},{"OBJECT_NAME":"STARLINK-5044","OBJECT_ID":"2022-119N","EPOCH":"2025-10-15T07:50:02.374368","MEAN_MOTION":15.08853818,"ECCENTRICITY":0.00014953,"INCLINATION":53.2162,"RA_OF_ASC_NODE":256.401,"ARG_OF_PERICENTER":85.987,"MEAN_ANOMALY":274.1293,"EPHEMERIS_TYPE":0,"CLASSIFICATION_TYPE":"U","NORAD_CAT_ID":53898,"ELEMENT_SET_NO":999,"REV_AT_EPOCH":16974,"BSTAR":0.00014813892,"MEAN_MOTION_DOT":2.071e-5,"MEAN_MOTION_DDOT":0},{"OBJECT_NAME":"STARLINK-5042","OBJECT_ID":"2022-119P","EPOCH":"2025-10-15T07:55:22.253952","MEAN_MOTION":15.08828177,"ECCENTRICITY":0.00013698,"INCLINATION":53.2166,"RA_OF_ASC_NODE":256.4232,"ARG_OF_PERICENTER":77.8574,"MEAN_ANOMALY":282.2572,"EPHEMERIS_TYPE":0,"CLASSIFICATION_TYPE":"U","NORAD_CAT_ID":53899,"ELEMENT_SET_NO":999,"REV_AT_EPOCH":16974,"BSTAR":0.0002177958,"MEAN_MOTION_DOT":3.179e-5,"MEAN_MOTION_DDOT":0},{"OBJECT_NAME":"STARLINK-5045","OBJECT_ID":"2022-119Q","EPOCH":"2025-10-15T07:39:27.313632","MEAN_MOTION":15.08845843,"ECCENTRICITY":0.00013491,"INCLINATION":53.2172,"RA_OF_ASC_NODE":256.3553,"ARG_OF_PERICENTER":93.958,"MEAN_ANOMALY":266.1566,"EPHEMERIS_TYPE":0,"CLASSIFICATION_TYPE":"U","NORAD_CAT_ID":53900,"ELEMENT_SET_NO":999,"REV_AT_EPOCH":16974,"BSTAR":-2.990161e-6,"MEAN_MOTION_DOT":-3.36e-6,"MEAN_MOTION_DDOT":0},{"OBJECT_NAME":"STARLINK-5024","OBJECT_ID":"2022-119R","EPOCH":"2025-10-15T21:10:15.028896","MEAN_MOTION":15.52635909,"ECCENTRICITY":0.0001922,"INCLINATION":53.2159,"RA_OF_ASC_NODE":240.8711,"ARG_OF_PERICENTER":143.0589,"MEAN_ANOMALY":217.0555,"EPHEMERIS_TYPE":0,"CLASSIFICATION_TYPE":"U","NORAD_CAT_ID":53901,"ELEMENT_SET_NO":999,"REV_AT_EPOCH":17001,"BSTAR":0.01439,"MEAN_MOTION_DOT":0.0098668,"MEAN_MOTION_DDOT":0},{"OBJECT_NAME":"STARLINK-5021","OBJECT_ID":"2022-119S","EPOCH":"2025-10-15T04:30:01.730592","MEAN_MOTION":15.08839875,"ECCENTRICITY":0.00014456,"INCLINATION":53.2176,"RA_OF_ASC_NODE":207.0581,"ARG_OF_PERICENTER":92.3968,"MEAN_ANOMALY":267.719,"EPHEMERIS_TYPE":0,"CLASSIFICATION_TYPE":"U","NORAD_CAT_ID":53902,"ELEMENT_SET_NO":999,"REV_AT_EPOCH":17042,"BSTAR":1.3318463e-5,"MEAN_MOTION_DOT":-7.6e-7,"MEAN_MOTION_DDOT":0},{"OBJECT_NAME":"STARLINK-5022","OBJECT_ID":"2022-119T","EPOCH":"2025-10-15T08:02:03.372864","MEAN_MOTION":15.088406,"ECCENTRICITY":0.00014829,"INCLINATION":53.2167,"RA_OF_ASC_NODE":256.4497,"ARG_OF_PERICENTER":90.6863,"MEAN_ANOMALY":269.4299,"EPHEMERIS_TYPE":0,"CLASSIFICATION_TYPE":"U","NORAD_CAT_ID":53903,"ELEMENT_SET_NO":999,"REV_AT_EPOCH":16974,"BSTAR":1.1069187e-5,"MEAN_MOTION_DOT":-1.12e-6,"MEAN_MOTION_DDOT":0},{"OBJECT_NAME":"STARLINK-4787","OBJECT_ID":"2022-119U","EPOCH":"2025-10-15T07:34:08.623776","MEAN_MOTION":15.08846218,"ECCENTRICITY":0.00014196,"INCLINATION":53.2166,"RA_OF_ASC_NODE":256.3328,"ARG_OF_PERICENTER":87.4747,"MEAN_ANOMALY":272.6407,"EPHEMERIS_TYPE":0,"CLASSIFICATION_TYPE":"U","NORAD_CAT_ID":53904,"ELEMENT_SET_NO":999,"REV_AT_EPOCH":16974,"BSTAR":6.9286985e-5,"MEAN_MOTION_DOT":8.15e-6,"MEAN_MOTION_DDOT":0}]
